FENGYUN 1C DEB          
1 30563U 99025ALD 17345.86682806  .00003379  00000-0  62783-3 0  9997
2 30563  99.0822 299.3613 0064230  78.2084 338.7045 14.64631472572323
